[
    {
        "Altitude(m)": 707297.7172574922,
        "Argument of Periapsis(deg)": 0.005695060593313534,
        "Eccentricity": 0.0,
        "Inclination(deg)": 45.0,
        "Latitude(deg)": 45.10364119577867,
        "Longitude(deg)": 156.2195562372161,
        "Mean Anomaly(deg)": 87.58480832374039,
        "RAAN(deg)": 169.99462402927088,
        "Satellite Name": "Constellation 1 753",
        "Satellite Number": 753,
        "Semi-Major Axis(m)": 7083131.272910544,
        "Time(s)": 95
    },
    {
        "Altitude(m)": 707298.297021214,
        "Argument of Periapsis(deg)": 0.00575500859955894,
        "Eccentricity": 0.0,
        "Inclination(deg)": 45.0,
        "Latitude(deg)": 45.10616634598716,
        "Longitude(deg)": 156.30119306660822,
        "Mean Anomaly(deg)": 87.64550946399034,
        "RAAN(deg)": 169.99456744010533,
        "Satellite Name": "Constellation 1 753",
        "Satellite Number": 753,
        "Semi-Major Axis(m)": 7083131.272910544,
        "Time(s)": 96
    },
    {
        "Altitude(m)": 707298.8622099257,
        "Argument of Periapsis(deg)": 0.005814956605804345,
        "Eccentricity": 0.0,
        "Inclination(deg)": 45.0,
        "Latitude(deg)": 45.108627140375575,
        "Longitude(deg)": 156.38283752342338,
        "Mean Anomaly(deg)": 87.70621060424021,
        "RAAN(deg)": 169.99451085093978,
        "Satellite Name": "Constellation 1 753",
        "Satellite Number": 753,
        "Semi-Major Axis(m)": 7083131.272910544,
        "Time(s)": 97
    },
    {
        "Altitude(m)": 707299.4128203598,
        "Argument of Periapsis(deg)": 0.00587490461204975,
        "Eccentricity": 0.0,
        "Inclination(deg)": 45.0,
        "Latitude(deg)": 45.11102356798896,
        "Longitude(deg)": 156.46448924823204,
        "Mean Anomaly(deg)": 87.76691174449007,
        "RAAN(deg)": 169.9944542617742,
        "Satellite Name": "Constellation 1 753",
        "Satellite Number": 753,
        "Semi-Major Axis(m)": 7083131.272910544,
        "Time(s)": 98
    },
    {
        "Altitude(m)": 707299.9488493296,
        "Argument of Periapsis(deg)": 0.005934852618295156,
        "Eccentricity": 0.0,
        "Inclination(deg)": 45.0,
        "Latitude(deg)": 45.113355618156454,
        "Longitude(deg)": 156.54614804957203,
        "Mean Anomaly(deg)": 87.82761288474,
        "RAAN(deg)": 169.99439767260864,
        "Satellite Name": "Constellation 1 753",
        "Satellite Number": 753,
        "Semi-Major Axis(m)": 7083131.272910544,
        "Time(s)": 99
    },
    {
        "Altitude(m)": 707300.4702937395,
        "Argument of Periapsis(deg)": 0.005994800624540561,
        "Eccentricity": 0.0,
        "Inclination(deg)": 45.0,
        "Latitude(deg)": 45.11562328049174,
        "Longitude(deg)": 156.62781373585375,
        "Mean Anomaly(deg)": 87.88831402498992,
        "RAAN(deg)": 169.99434108344303,
        "Satellite Name": "Constellation 1 753",
        "Satellite Number": 753,
        "Semi-Major Axis(m)": 7083131.272910544,
        "Time(s)": 100
    },
    {
        "Altitude(m)": 707300.9771505758,
        "Argument of Periapsis(deg)": 0.006054748630785968,
        "Eccentricity": 0.0,
        "Inclination(deg)": 45.0,
        "Latitude(deg)": 45.11782654489319,
        "Longitude(deg)": 156.70948611536477,
        "Mean Anomaly(deg)": 87.94901516523981,
        "RAAN(deg)": 169.99428449427748,
        "Satellite Name": "Constellation 1 753",
        "Satellite Number": 753,
        "Semi-Major Axis(m)": 7083131.272910544,
        "Time(s)": 101
    },
    {
        "Altitude(m)": 707301.4694169156,
        "Argument of Periapsis(deg)": 0.006114696637031373,
        "Eccentricity": 0.0,
        "Inclination(deg)": 45.0,
        "Latitude(deg)": 45.11996540154419,
        "Longitude(deg)": 156.7911649962721,
        "Mean Anomaly(deg)": 88.0097163054897,
        "RAAN(deg)": 169.99422790511193,
        "Satellite Name": "Constellation 1 753",
        "Satellite Number": 753,
        "Semi-Major Axis(m)": 7083131.272910544,
        "Time(s)": 102
    },
    {
        "Altitude(m)": 707301.9470899116,
        "Argument of Periapsis(deg)": 0.006174644643276778,
        "Eccentricity": 0.0,
        "Inclination(deg)": 45.0,
        "Latitude(deg)": 45.122039840913295,
        "Longitude(deg)": 156.87285018662635,
        "Mean Anomaly(deg)": 88.07041744573961,
        "RAAN(deg)": 169.99417131594635,
        "Satellite Name": "Constellation 1 753",
        "Satellite Number": 753,
        "Semi-Major Axis(m)": 7083131.272910544,
        "Time(s)": 103
    },
    {
        "Altitude(m)": 707302.4101668132,
        "Argument of Periapsis(deg)": 0.006234592649522184,
        "Eccentricity": 0.0,
        "Inclination(deg)": 45.0,
        "Latitude(deg)": 45.124049853754684,
        "Longitude(deg)": 156.95454132626782,
        "Mean Anomaly(deg)": 88.13111858598955,
        "RAAN(deg)": 169.9941147267808,
        "Satellite Name": "Constellation 1 753",
        "Satellite Number": 753,
        "Semi-Major Axis(m)": 7083131.272910544,
        "Time(s)": 104
    },
    {
        "Altitude(m)": 707302.8586449424,
        "Argument of Periapsis(deg)": 0.00629454065576759,
        "Eccentricity": 0.0,
        "Inclination(deg)": 45.0,
        "Latitude(deg)": 45.1259954311073,
        "Longitude(deg)": 157.036238559218,
        "Mean Anomaly(deg)": 88.19181972623939,
        "RAAN(deg)": 169.9940581376152,
        "Satellite Name": "Constellation 1 753",
        "Satellite Number": 753,
        "Semi-Major Axis(m)": 7083131.272910544,
        "Time(s)": 105
    },
    {
        "Altitude(m)": 707303.2925217203,
        "Argument of Periapsis(deg)": 0.006354488662012995,
        "Eccentricity": 0.0,
        "Inclination(deg)": 45.0,
        "Latitude(deg)": 45.12787656429669,
        "Longitude(deg)": 157.117941525101,
        "Mean Anomaly(deg)": 88.2525208664893,
        "RAAN(deg)": 169.99400154844963,
        "Satellite Name": "Constellation 1 753",
        "Satellite Number": 753,
        "Semi-Major Axis(m)": 7083131.272910544,
        "Time(s)": 106
    },
    {
        "Altitude(m)": 707303.711794643,
        "Argument of Periapsis(deg)": 0.006414436668258401,
        "Eccentricity": 0.0,
        "Inclination(deg)": 45.0,
        "Latitude(deg)": 45.12969324493405,
        "Longitude(deg)": 157.19965003153519,
        "Mean Anomaly(deg)": 88.31322200673924,
        "RAAN(deg)": 169.99394495928408,
        "Satellite Name": "Constellation 1 753",
        "Satellite Number": 753,
        "Semi-Major Axis(m)": 7083131.272910544,
        "Time(s)": 107
    },
    {
        "Altitude(m)": 707304.1164612913,
        "Argument of Periapsis(deg)": 0.0064743846745038075,
        "Eccentricity": 0.0,
        "Inclination(deg)": 45.0,
        "Latitude(deg)": 45.13144546491673,
        "Longitude(deg)": 157.28136388603878,
        "Mean Anomaly(deg)": 88.3739231469891,
        "RAAN(deg)": 169.9938883701185,
        "Satellite Name": "Constellation 1 753",
        "Satellite Number": 753,
        "Semi-Major Axis(m)": 7083131.272910544,
        "Time(s)": 108
    },
    {
        "Altitude(m)": 707304.5065193491,
        "Argument of Periapsis(deg)": 0.0065343326807492125,
        "Eccentricity": 0.0,
        "Inclination(deg)": 45.0,
        "Latitude(deg)": 45.13313321642833,
        "Longitude(deg)": 157.36308289603443,
        "Mean Anomaly(deg)": 88.43462428723899,
        "RAAN(deg)": 169.99383178095292,
        "Satellite Name": "Constellation 1 753",
        "Satellite Number": 753,
        "Semi-Major Axis(m)": 7083131.272910544,
        "Time(s)": 109
    },
    {
        "Altitude(m)": 707304.8819665563,
        "Argument of Periapsis(deg)": 0.0065942806869946176,
        "Eccentricity": 0.0,
        "Inclination(deg)": 45.0,
        "Latitude(deg)": 45.13475649193899,
        "Longitude(deg)": 157.444806868852,
        "Mean Anomaly(deg)": 88.49532542748892,
        "RAAN(deg)": 169.99377519178736,
        "Satellite Name": "Constellation 1 753",
        "Satellite Number": 753,
        "Semi-Major Axis(m)": 7083131.272910544,
        "Time(s)": 110
    },
    {
        "Altitude(m)": 707305.2428007615,
        "Argument of Periapsis(deg)": 0.006654228693240024,
        "Eccentricity": 0.0,
        "Inclination(deg)": 45.0,
        "Latitude(deg)": 45.1363152842057,
        "Longitude(deg)": 157.52653544363488,
        "Mean Anomaly(deg)": 88.55602656773883,
        "RAAN(deg)": 169.9937186026218,
        "Satellite Name": "Constellation 1 753",
        "Satellite Number": 753,
        "Semi-Major Axis(m)": 7083131.272910544,
        "Time(s)": 111
    },
    {
        "Altitude(m)": 707305.589019894,
        "Argument of Periapsis(deg)": 0.006714176699485429,
        "Eccentricity": 0.0,
        "Inclination(deg)": 45.0,
        "Latitude(deg)": 45.137809586271416,
        "Longitude(deg)": 157.60826876373213,
        "Mean Anomaly(deg)": 88.61672770798872,
        "RAAN(deg)": 169.99366201345623,
        "Satellite Name": "Constellation 1 753",
        "Satellite Number": 753,
        "Semi-Major Axis(m)": 7083131.272910544,
        "Time(s)": 112
    },
    {
        "Altitude(m)": 707305.920621963,
        "Argument of Periapsis(deg)": 0.006774124705730835,
        "Eccentricity": 0.0,
        "Inclination(deg)": 45.0,
        "Latitude(deg)": 45.139239391466866,
        "Longitude(deg)": 157.69000646811926,
        "Mean Anomaly(deg)": 88.6774288482386,
        "RAAN(deg)": 169.99360542429068,
        "Satellite Name": "Constellation 1 753",
        "Satellite Number": 753,
        "Semi-Major Axis(m)": 7083131.272910544,
        "Time(s)": 113
    }
]